SORAYA                  
1 58817U 24015A   24039.18035767  .00000233  00000+0  10350-3 0  9995
2 58817  64.5135  57.8409 0011224 257.2995 102.6835 14.41911124  2732
QAEM 100 R/B            
1 58818U 24015B   24038.74635692  .00000427  00000+0  15815-3 0  9996
2 58818  64.5027  58.9573 0012326 289.7887  70.1869 14.43307841  2677
QAEM 100 DEB            
1 58819U 24015C   24028.55774234  .00054227  00000+0  15623-1 0  9993
2 58819  64.4782  88.5570 0010930 314.2129  45.8058 14.44281846  1162
2024-016A               
1 58820U 24016A   24038.90469384  .00016818  00000+0  99417-3 0  9992
2 58820  97.5232 114.9911 0013853 227.3039 132.7025 15.11466430  2389
2024-016B               
1 58821U 24016B   24039.16997337  .00012115  00000+0  71972-3 0  9998
2 58821  97.5230 115.2503 0013778 226.3960 133.6127 15.11365396  2413
2024-016C               
1 58822U 24016C   24039.16975754  .00010437  00000+0  62064-3 0  9995
2 58822  97.5221 115.2489 0014092 226.4697 133.5363 15.11365694  2417
2024-016D               
1 58823U 24016D   24039.16787660  .00009928  00000+0  58791-3 0  9998
2 58823  97.5196 115.2463 0013985 230.3001 129.6997 15.11532500  2415
2024-016E               
1 58824U 24016E   24038.87784490  .00087141  41883-5  65365-3 0  9992
2 58824  97.6677 116.2854 0184066 327.8595  31.1539 15.53365447  2425
2024-016F               
1 58825U 24016F   24035.21119682  .00011376  00000+0  67662-3 0  9992
2 58825  97.5234 111.3533 0013514 241.6732 194.7075 15.11342253  1748
STARLINK-31233          
1 58826U 24017A   24037.41667824 -.01712215  00000+0 -17534-1 0  9998
2 58826  53.1606 154.2213 0001248  51.9324 146.8545 15.67568809  3235
STARLINK-31271          
1 58827U 24017B   24037.25001157 -.01687602  00000+0 -17725-1 0  9995
2 58827  53.1609 154.9270 0000827  84.5566 310.1875 15.66908168  3227
STARLINK-31222          
1 58828U 24017C   24039.25001157 -.01718421  00000+0 -22700-1 0  9991
2 58828  53.1600 145.2523 0001069  80.4601   9.2080 15.60694467  3522
STARLINK-31258          
1 58829U 24017D   24038.91667824 -.01772235  00000+0 -22358-1 0  9995
2 58829  53.1595 146.8751 0000766  69.9689 305.9083 15.61970457  3488
STARLINK-31253          
1 58830U 24017E   24036.58334491 -.01735502  00000+0 -15630-1 0  9990
2 58830  53.1592 158.3211 0001222  72.5025  99.7395 15.70690518  3108
STARLINK-31232          
1 58831U 24017F   24038.91667824 -.01772383  00000+0 -22362-1 0  9997
2 58831  53.1596 146.8713 0000859  67.6434 309.9686 15.61967465  3462
STARLINK-31263          
1 58832U 24017G   24036.58334491 -.01732950  00000+0 -15605-1 0  9998
2 58832  53.1591 158.3177 0001488  61.1800 112.8218 15.70685767  3201
STARLINK-31175          
1 58833U 24017H   24037.33334491 -.01699693  00000+0 -16131-1 0  9994
2 58833  53.1619 154.3553 0001334  85.5209 138.9009 15.69376150  3220
STARLINK-31171          
1 58834U 24017J   24037.75001157 -.01652803  00000+0 -18246-1 0  9992
2 58834  53.1609 152.4302 0000663  49.4130 309.1364 15.65617012  3303
STARLINK-31246          
1 58835U 24017K   24039.25001157 -.01717646  00000+0 -22698-1 0  9993
2 58835  53.1602 145.2399 0001088  74.9470  20.7808 15.60683600  3518
STARLINK-31251          
1 58836U 24017L   24037.08334491 -.01706821  00000+0 -16610-1 0  9993
2 58836  53.1611 155.8427 0001191  49.9303  75.6071 15.68790388  3296
STARLINK-31172          
1 58837U 24017M   24039.25001157 -.02056263  00000+0 -20900-1 0  9991
2 58837  53.1632 144.8426 0001382  74.7936 219.8111 15.67819274  3525
STARLINK-31249          
1 58838U 24017N   24037.25001157 -.01683002  00000+0 -16785-1 0  9992
2 58838  53.1605 155.0190 0000727  78.3226 269.7177 15.68157842  3222
STARLINK-31250          
1 58839U 24017P   24039.25001157 -.01715050  00000+0 -22665-1 0  9998
2 58839  53.1601 145.2322 0001223  80.9630  18.2279 15.60676394  3474
STARLINK-31248          
1 58840U 24017Q   24036.75001157 -.01671705  00000+0 -15414-1 0  9994
2 58840  53.1602 157.4782 0001067  50.8637 353.8086 15.70013822  3231
STARLINK-31236          
1 58841U 24017R   24036.75001157 -.01667047  00000+0 -15364-1 0  9993
2 58841  53.1603 157.4806 0001403  23.7997  19.9947 15.70012414  3144
STARLINK-31228          
1 58842U 24017S   24036.66667824 -.01708862  00000+0 -15585-1 0  9999
2 58842  53.1591 157.8880 0000952  59.2853 234.9325 15.70345204  3134
STARLINK-31280          
1 58843U 24017T   24037.08334491 -.01718791  00000+0 -16743-1 0  9997
2 58843  53.1594 155.8308 0001011  65.8477  64.9449 15.68791722  3206
STARLINK-31269          
1 58844U 24017U   24038.91667824 -.01770143  00000+0 -22350-1 0  9990
2 58844  53.1596 146.8439 0000950  70.7709 319.8515 15.61944208  3464
STARLINK-31264          
1 58845U 24017V   24038.91667824 -.01769267  00000+0 -22336-1 0  9990
2 58845  53.1594 146.8468 0001064  47.1511 342.6027 15.61945013  3468
STARLINK-31273          
1 58846U 24017W   24038.91667824 -.01770552  00000+0 -22353-1 0  9999
2 58846  53.1595 146.8476 0000924  70.0616 318.8259 15.61947610  3461
STARLINK-31262          
1 58847U 24017X   24038.91667824 -.01772276  00000+0 -22380-1 0  9995
2 58847  53.1598 146.8423 0000914  67.1455 324.3428 15.61944722  3465
AAC-HIS-SAT3            
1 58848U 23174DH  24038.88650515  .00007219  00000+0  49620-3 0  9997
2 58848  97.4508 114.3975 0014415  98.5191 261.7670 15.06140505 13916
2024-018A               
1 58849U 24018A   24039.07315203  .00001897  00000+0  23719-3 0  9997
2 58849  58.6915 349.4527 0457624 175.0097 185.5729 14.32762082  1598
2024-018B               
1 58850U 24018B   24039.15697337  .00003013  00000+0  35675-3 0  9995
2 58850  58.7011 349.1300 0455540 175.6054 284.8924 14.33457493  1596
2024-018C               
1 58851U 24018C   24039.13317670  .00001432  00000+0  18491-3 0  9993
2 58851  58.6882 349.1688 0451821 175.0079 185.5686 14.34010214  1601
2024-018D               
1 58852U 24018D   24039.06437186  .00005837  00000+0  66622-3 0  9993
2 58852  58.6782 349.4053 0452467 174.4928 186.1325 14.33941264  1595
STARLINK-31238          
1 58853U 24019A   24038.91667824 -.01001610  00000+0 -66639-2 0  9997
2 58853  43.0044 221.6947 0001585 271.9650 154.1576 15.76792654  2470
STARLINK-31158          
1 58854U 24019B   24038.91667824 -.01028838  00000+0 -69104-2 0  9999
2 58854  43.0042 221.6880 0001612 274.1929 154.5711 15.76642665  2583
STARLINK-31237          
1 58855U 24019C   24038.91667824 -.01015790  00000+0 -67920-2 0  9997
2 58855  43.0043 221.6909 0001579 271.7699 155.7077 15.76713939  2688
STARLINK-31244          
1 58856U 24019D   24038.91667824 -.01039949  00000+0 -70112-2 0  9997
2 58856  43.0040 221.6846 0001733 276.2065 153.7663 15.76583479  2633
STARLINK-31216          
1 58857U 24019E   24038.91667824 -.01154338  00000+0 -62176-2 0  9999
2 58857  43.0039 221.3611 0001633 278.2388 280.4439 15.81730221  2632
STARLINK-31226          
1 58858U 24019F   24038.91667824 -.01066189  00000+0 -72573-2 0  9998
2 58858  43.0042 221.6779 0001823 278.3446 154.1789 15.76428961  2793
STARLINK-31197          
1 58859U 24019G   24038.91667824 -.01075008  00000+0 -73477-2 0  9993
2 58859  43.0040 221.6749 0001689 283.0127 150.7180 15.76358050  2796
STARLINK-31213          
1 58860U 24019H   24039.25001157 -.01312199  00000+0 -84475-2 0  9999
2 58860  43.0043 219.5780 0001614 272.2810 282.5045 15.77783776  2825
STARLINK-31199          
1 58861U 24019J   24038.91667824 -.01101868  00000+0 -76032-2 0  9990
2 58861  43.0040 221.6685 0001662 275.3060 160.8528 15.76208052  2793
STARLINK-31200          
1 58862U 24019K   24038.91667824 -.01112572  00000+0 -77135-2 0  9990
2 58862  43.0041 221.6657 0001480 282.8968 154.4611 15.76128807  2793
STARLINK-31149          
1 58863U 24019L   24039.25001157 -.01200189  00000+0 -87298-2 0  9993
2 58863  43.0035 219.6355 0001688 267.6768 263.9302 15.75255493  2826
STARLINK-31242          
1 58864U 24019M   24038.91667824 -.01140894  00000+0 -79886-2 0  9995
2 58864  43.0038 221.6596 0001776 279.1079 160.6144 15.75970130  2796
STARLINK-31223          
1 58865U 24019N   24039.25001157 -.01213949  00000+0 -89190-2 0  9996
2 58865  43.0033 219.6303 0001447 265.4394 268.3051 15.75064468  2676
STARLINK-31219          
1 58866U 24019P   24039.25001157 -.01203579  00000+0 -88723-2 0  9996
2 58866  43.0030 219.6274 0001557 265.8817 268.9064 15.74962557  2571
STARLINK-31198          
1 58867U 24019Q   24039.25001157 -.01217358  00000+0 -75232-2 0  9998
2 58867  43.0033 219.4188 0001457 263.6892 354.1956 15.78916716  2573
STARLINK-31196          
1 58868U 24019R   24039.25001157 -.01089240  00000+0 -80160-2 0  9992
2 58868  43.0028 219.6217 0001702 276.6419 260.1918 15.74723733  2570
STARLINK-31203          
1 58869U 24019S   24038.91667824 -.01205036  00000+0 -86544-2 0  9999
2 58869  43.0031 221.6447 0001693 276.6214 168.7784 15.75553863  2799
STARLINK-31201          
1 58870U 24019T   24038.91667824 -.01216010  00000+0 -87796-2 0  9995
2 58870  43.0027 221.6419 0001570 287.1406 159.3660 15.75462367  2583
STARLINK-31214          
1 58871U 24019U   24038.91667824 -.01255331  00000+0 -89540-2 0  9994
2 58871  43.0032 221.6394 0001640 280.5821 167.0035 15.75380484  2589
STARLINK-31215          
1 58872U 24019V   24038.91667824 -.01269853  00000+0 -91124-2 0  9990
2 58872  43.0031 221.6366 0001740 274.1093 174.5908 15.75272111  2634
STARLINK-31177          
1 58873U 24019W   24039.25001157 -.00294329  00000+0 -20728-2 0  9997
2 58873  43.0028 219.6098 0001847 268.4260 273.3387 15.73992533  2825
STARLINK-30945          
1 58874U 24019X   24039.25001157 -.01217620  00000+0 -73733-2 0  9992
2 58874  43.0039 219.4557 0001559 259.4542 343.8324 15.79358857  2835
